[{"OBJECT_NAME":"TIANMU-1 20","OBJECT_ID":"2023-208B","EPOCH":"2026-03-09T21:50:45.859200","MEAN_MOTION":15.31029249,"ECCENTRICITY":0.00061925,"INCLINATION":97.4323,"RA_OF_ASC_NODE":185.4313,"ARG_OF_PERICENTER":324.1763,"MEAN_ANOMALY":35.9062,"EPHEMERIS_TYPE":0,"CLASSIFICATION_TYPE":"U","NORAD_CAT_ID":58661,"ELEMENT_SET_NO":999,"REV_AT_EPOCH":12222,"BSTAR":0.0003681641,"MEAN_MOTION_DOT":0.00010969,"MEAN_MOTION_DDOT":0},{"OBJECT_NAME":"STARLINK-31910","OBJECT_ID":"2024-084L","EPOCH":"2026-03-09T22:30:20.259936","MEAN_MOTION":15.2744923,"ECCENTRICITY":0.00011468,"INCLINATION":43.0019,"RA_OF_ASC_NODE":40.1735,"ARG_OF_PERICENTER":235.7114,"MEAN_ANOMALY":124.3629,"EPHEMERIS_TYPE":0,"CLASSIFICATION_TYPE":"U","NORAD_CAT_ID":59664,"ELEMENT_SET_NO":999,"REV_AT_EPOCH":10441,"BSTAR":0.00081408902,"MEAN_MOTION_DOT":0.00022118,"MEAN_MOTION_DDOT":0}]
